OBJECT_NAME,OBJECT_ID,EPOCH,MEAN_MOTION,ECCENTRICITY,INCLINATION,RA_OF_ASC_NODE,ARG_OF_PERICENTER,MEAN_ANOMALY,EPHEMERIS_TYPE,CLASSIFICATION_TYPE,NORAD_CAT_ID,ELEMENT_SET_NO,REV_AT_EPOCH,BSTAR,MEAN_MOTION_DOT,MEAN_MOTION_DDOT
SPACEMOBILE-004,2024-163E,2026-07-06T11:41:01.713696,15.20801145,.0007073,52.9667,220.1743,196.8401,163.2360,0,U,61049,999,10070,.51660541E-3,.11231E-3,0
CZ-8A R/B,2025-231K,2026-07-07T09:15:05.967072,14.30160619,.01165192,50.0052,313.3842,295.1128,63.7735,0,U,66004,999,3783,.59463867E-4,.3E-7,0
SZ-21 MODULE,2025-246C,2026-07-07T00:49:18.083712,15.78192992,.00062945,41.4706,183.5562,162.6981,197.4080,0,U,66515,999,3687,.21756313E-3,.38272E-3,0
SPACEMOBILE-006,2025-309A,2026-07-07T04:21:59.299776,15.18643108,.0010676,52.9952,240.0450,189.1004,170.9798,0,U,67232,999,2963,.47122346E-4,.667E-5,0
SPACEMOBILE-008,2026-139A,2026-07-07T10:09:20.830464,15.12794365,.00046387,52.9937,170.6933,37.6326,322.4989,0,U,69589,999,304,.51460217E-4,.613E-5,0
SPACEMOBILE-009,2026-139B,2026-07-07T08:36:14.501952,15.12687590,.00048916,52.9928,170.9976,32.8078,327.3216,0,U,69590,999,303,.50952734E-4,.601E-5,0
SPACEMOBILE-010,2026-139C,2026-07-07T10:14:37.011264,15.12518827,.00047738,52.9932,170.7141,24.0576,336.0637,0,U,69591,999,305,.50380535E-4,.587E-5,0
